{
  "type": "FeatureCollection",
  "features": [
    {
      "type": "Feature",
      "properties": {
        "norad_id": 40128,
        "name": "GSAT0201 (GALILEO 5)",
        "group": "gnss",
        "lat": -47.22041834503941,
        "lon": 170.52376585380838,
        "alt_km": 20382.870189356683,
        "timestamp": "2025-12-11T15:53:39.784782+00:00",
        "meta_object_name": "GSAT0201 (GALILEO 5)",
        "meta_object_id": "2014-050A",
        "meta_epoch": "2025-12-09T03:42:58.517280",
        "meta_mean_motion": 1.8551953,
        "meta_eccentricity": 0.164755,
        "meta_inclination": 49.0809,
        "meta_ra_of_asc_node": 281.2097,
        "meta_arg_of_pericenter": 172.1436,
        "meta_mean_anomaly": 190.8359,
        "meta_ephemeris_type": 0,
        "meta_classification_type": "U",
        "meta_norad_cat_id": 40128,
        "meta_element_set_no": 999,
        "meta_rev_at_epoch": 7479,
        "meta_bstar": 0,
        "meta_mean_motion_dot": -7.1e-07,
        "meta_mean_motion_ddot": 0,
        "tle_line1": "1 40128U 14050A   25343.15484395 -.00000071  00000+0  00000+0 0  9998",
        "tle_line2": "2 40128  49.0809 281.2097 1647550 172.1436 190.8359  1.85519530 74797"
      },
      "geometry": {
        "type": "Point",
        "coordinates": [
          170.52376585380838,
          -47.22041834503941
        ]
      }
    },
    {
      "type": "Feature",
      "properties": {
        "norad_id": 40129,
        "name": "GSAT0202 (GALILEO 6)",
        "group": "gnss",
        "lat": 35.036232956883794,
        "lon": -42.44328613888595,
        "alt_km": 23560.789248466044,
        "timestamp": "2025-12-11T15:53:39.784796+00:00",
        "meta_object_name": "GSAT0202 (GALILEO 6)",
        "meta_object_id": "2014-050B",
        "meta_epoch": "2025-12-08T20:55:50.636640",
        "meta_mean_motion": 1.85520286,
        "meta_eccentricity": 0.16482545,
        "meta_inclination": 49.097,
        "meta_ra_of_asc_node": 280.3049,
        "meta_arg_of_pericenter": 172.8865,
        "meta_mean_anomaly": 189.8198,
        "meta_ephemeris_type": 0,
        "meta_classification_type": "U",
        "meta_norad_cat_id": 40129,
        "meta_element_set_no": 999,
        "meta_rev_at_epoch": 7695,
        "meta_bstar": 0,
        "meta_mean_motion_dot": -6.8e-07,
        "meta_mean_motion_ddot": 0,
        "tle_line1": "1 40129U 14050B   25342.87211385 -.00000068  00000+0  00000+0 0  9990",
        "tle_line2": "2 40129  49.0970 280.3049 1648254 172.8865 189.8198  1.85520286 76958"
      },
      "geometry": {
        "type": "Point",
        "coordinates": [
          -42.44328613888595,
          35.036232956883794
        ]
      }
    },
    {
      "type": "Feature",
      "properties": {
        "norad_id": 40269,
        "name": "IRNSS-1C",
        "group": "gnss",
        "lat": -4.66600126118224,
        "lon": 41.91706598463671,
        "alt_km": 35742.67522273697,
        "timestamp": "2025-12-11T15:53:39.784809+00:00",
        "meta_object_name": "IRNSS-1C",
        "meta_object_id": "2014-061A",
        "meta_epoch": "2025-12-11T01:02:21.559776",
        "meta_mean_motion": 1.00268,
        "meta_eccentricity": 0.00177237,
        "meta_inclination": 6.0365,
        "meta_ra_of_asc_node": 92.6563,
        "meta_arg_of_pericenter": 2.3092,
        "meta_mean_anomaly": 83.5292,
        "meta_ephemeris_type": 0,
        "meta_classification_type": "U",
        "meta_norad_cat_id": 40269,
        "meta_element_set_no": 999,
        "meta_rev_at_epoch": 4080,
        "meta_bstar": 0,
        "meta_mean_motion_dot": -1.54e-06,
        "meta_mean_motion_ddot": 0,
        "tle_line1": "1 40269U 14061A   25345.04330509 -.00000154  00000+0  00000+0 0  9995",
        "tle_line2": "2 40269   6.0365  92.6563 0017723   2.3092  83.5292  1.00268000 40808"
      },
      "geometry": {
        "type": "Point",
        "coordinates": [
          41.91706598463671,
          -4.66600126118224
        ]
      }
    },
    {
      "type": "Feature",
      "properties": {
        "norad_id": 40294,
        "name": "GPS BIIF-8  (PRN 03)",
        "group": "gnss",
        "lat": 27.98956089013642,
        "lon": -162.09953220234775,
        "alt_km": 20140.65160791386,
        "timestamp": "2025-12-11T15:53:39.784820+00:00",
        "meta_object_name": "GPS BIIF-8  (PRN 03)",
        "meta_object_id": "2014-068A",
        "meta_epoch": "2025-12-10T11:09:30.250944",
        "meta_mean_motion": 2.00564629,
        "meta_eccentricity": 0.0060788,
        "meta_inclination": 56.8561,
        "meta_ra_of_asc_node": 38.234,
        "meta_arg_of_pericenter": 69.2281,
        "meta_mean_anomaly": 291.4749,
        "meta_ephemeris_type": 0,
        "meta_classification_type": "U",
        "meta_norad_cat_id": 40294,
        "meta_element_set_no": 999,
        "meta_rev_at_epoch": 8142,
        "meta_bstar": 0,
        "meta_mean_motion_dot": -8.9e-07,
        "meta_mean_motion_ddot": 0,
        "tle_line1": "1 40294U 14068A   25344.46493346 -.00000089  00000+0  00000+0 0  9991",
        "tle_line2": "2 40294  56.8561  38.2340 0060788  69.2281 291.4749  2.00564629 81424"
      },
      "geometry": {
        "type": "Point",
        "coordinates": [
          -162.09953220234775,
          27.98956089013642
        ]
      }
    },
    {
      "type": "Feature",
      "properties": {
        "norad_id": 40315,
        "name": "COSMOS 2501 (702K)",
        "group": "gnss",
        "lat": 43.22514582247702,
        "lon": -135.3220956385968,
        "alt_km": 19171.393506704026,
        "timestamp": "2025-12-11T15:53:39.784831+00:00",
        "meta_object_name": "COSMOS 2501 (702K)",
        "meta_object_id": "2014-075A",
        "meta_epoch": "2025-12-07T20:13:51.362112",
        "meta_mean_motion": 2.13101338,
        "meta_eccentricity": 0.00201356,
        "meta_inclination": 63.6139,
        "meta_ra_of_asc_node": 196.9947,
        "meta_arg_of_pericenter": 204.4913,
        "meta_mean_anomaly": 155.4908,
        "meta_ephemeris_type": 0,
        "meta_classification_type": "U",
        "meta_norad_cat_id": 40315,
        "meta_element_set_no": 999,
        "meta_rev_at_epoch": 8577,
        "meta_bstar": 0,
        "meta_mean_motion_dot": 5.4e-07,
        "meta_mean_motion_ddot": 0,
        "tle_line1": "1 40315U 14075A   25341.84295558  .00000054  00000+0  00000+0 0  9998",
        "tle_line2": "2 40315  63.6139 196.9947 0020135 204.4913 155.4908  2.13101338 85773"
      },
      "geometry": {
        "type": "Point",
        "coordinates": [
          -135.3220956385968,
          43.22514582247702
        ]
      }
    },
    {
      "type": "Feature",
      "properties": {
        "norad_id": 40534,
        "name": "GPS BIIF-9  (PRN 26)",
        "group": "gnss",
        "lat": 38.949295062089085,
        "lon": -110.83651878244956,
        "alt_km": 19900.523335342426,
        "timestamp": "2025-12-11T15:53:39.784842+00:00",
        "meta_object_name": "GPS BIIF-9  (PRN 26)",
        "meta_object_id": "2015-013A",
        "meta_epoch": "2025-12-10T02:18:43.739712",
        "meta_mean_motion": 2.0056274,
        "meta_eccentricity": 0.010694,
        "meta_inclination": 53.1981,
        "meta_ra_of_asc_node": 211.9997,
        "meta_arg_of_pericenter": 38.4152,
        "meta_mean_anomaly": 322.4192,
        "meta_ephemeris_type": 0,
        "meta_classification_type": "U",
        "meta_norad_cat_id": 40534,
        "meta_element_set_no": 999,
        "meta_rev_at_epoch": 7803,
        "meta_bstar": 0,
        "meta_mean_motion_dot": 1.5e-07,
        "meta_mean_motion_ddot": 0,
        "tle_line1": "1 40534U 15013A   25344.09633958  .00000015  00000+0  00000+0 0  9991",
        "tle_line2": "2 40534  53.1981 211.9997 0106940  38.4152 322.4192  2.00562740 78033"
      },
      "geometry": {
        "type": "Point",
        "coordinates": [
          -110.83651878244956,
          38.949295062089085
        ]
      }
    },
    {
      "type": "Feature",
      "properties": {
        "norad_id": 40544,
        "name": "GSAT0203 (GALILEO 7)",
        "group": "gnss",
        "lat": 56.35822018079285,
        "lon": 87.50766667856692,
        "alt_km": 23234.798676420905,
        "timestamp": "2025-12-11T15:53:39.784855+00:00",
        "meta_object_name": "GSAT0203 (GALILEO 7)",
        "meta_object_id": "2015-017A",
        "meta_epoch": "2025-12-07T23:40:17.742144",
        "meta_mean_motion": 1.70475816,
        "meta_eccentricity": 0.00065218,
        "meta_inclination": 56.8473,
        "meta_ra_of_asc_node": 346.8096,
        "meta_arg_of_pericenter": 270.7048,
        "meta_mean_anomaly": 89.2382,
        "meta_ephemeris_type": 0,
        "meta_classification_type": "U",
        "meta_norad_cat_id": 40544,
        "meta_element_set_no": 999,
        "meta_rev_at_epoch": 6594,
        "meta_bstar": 0,
        "meta_mean_motion_dot": -8.6e-07,
        "meta_mean_motion_ddot": 0,
        "tle_line1": "1 40544U 15017A   25341.98631646 -.00000086  00000+0  00000+0 0  9992",
        "tle_line2": "2 40544  56.8473 346.8096 0006521 270.7048  89.2382  1.70475816 65945"
      },
      "geometry": {
        "type": "Point",
        "coordinates": [
          87.50766667856692,
          56.35822018079285
        ]
      }
    }
  ]
}